OSCAR 7 (AO-7)          
1 07530U 74089B   24189.59071624 -.00000037  00000+0  56261-4 0  9995
2 07530 101.9781 184.4300 0012555  46.6832  80.2039 12.53676745271593
PHASE 3B (AO-10)        
1 14129U 83058B   24187.83974847 -.00000255  00000+0  00000+0 0  9994
2 14129  27.4278 336.1245 6033922 282.3100  19.8282  2.05866253280843
UOSAT 2 (UO-11)         
1 14781U 84021B   24189.41456950  .00001791  00000+0  20665-3 0  9993
2 14781  97.7056 158.0806 0008535  21.7778 338.3800 14.86826748151497
LUSAT (LO-19)           
1 20442U 90005G   24189.39476799  .00000215  00000+0  94576-4 0  9996
2 20442  98.8827 180.1938 0012618 123.5580 236.6810 14.33566143800671
EYESAT A (AO-27)        
1 22825U 93061C   24189.40200568  .00000174  00000+0  84055-4 0  9994
2 22825  98.7873 242.3874 0008818  27.2159 332.9483 14.30517186605508
ITAMSAT (IO-26)         
1 22826U 93061D   24189.58493466  .00000208  00000+0  96337-4 0  9999
2 22826  98.7820 242.4365 0009040  11.8119 348.3273 14.30900942605818
RADIO ROSTO (RS-15)     
1 23439U 94085A   24189.60120117 -.00000043  00000+0 -16029-4 0  9999
2 23439  64.8187  10.7547 0149683 139.8665 221.3427 11.27577646215892
JAS-2 (FO-29)           
1 24278U 96046B   24189.52713209 -.00000010  00000+0  23005-4 0  9996
2 24278  98.5803 121.5169 0350743 135.4527 227.5384 13.53191921377184
TECHSAT 1B (GO-32)      
1 25397U 98043D   24189.47255357  .00000134  00000+0  78321-4 0  9994
2 25397  98.9225 156.4994 0002399  94.9940 265.1512 14.24065592350300
ISS (ZARYA)             
1 25544U 98067A   24189.47577446  .00013713  00000+0  25049-3 0  9995
2 25544  51.6394 214.8106 0010320  40.5681 112.8468 15.49651732461691
PCSAT (NO-44)           
1 26931U 01043C   24189.54150303  .00000261  00000+0  12974-3 0  9998
2 26931  67.0515 278.9678 0007464 277.0414  82.9838 14.31270318188869
SAUDISAT 1C (SO-50)     
1 27607U 02058C   24189.41704673  .00001894  00000+0  27256-3 0  9999
2 27607  64.5539 159.3618 0025827 101.8538 258.5465 14.79102122159312
CUTE-1 (CO-55)          
1 27844U 03031E   24189.54771720  .00000493  00000+0  23694-3 0  9991
2 27844  98.6765 196.2927 0011056  86.4455 273.7988 14.23303582 90687
CUBESAT XI-IV (CO-57)   
1 27848U 03031J   24189.48990002  .00000420  00000+0  20687-3 0  9993
2 27848  98.6795 196.4691 0010916 100.7783 259.4625 14.22739281 90421
MOZHAYETS 4 (RS-22)     
1 27939U 03042A   24189.56708632  .00001638  00000+0  28112-3 0  9994
2 27939  98.2931 346.0917 0011878   2.0448  71.7146 14.70059554111141
CUBESAT XI-V            
1 28895U 05043F   24189.35079759  .00002015  00000+0  36112-3 0  9996
2 28895  98.2043 325.2093 0014380 295.2929  64.6785 14.67839530997410
CUTE-1.7+APD II (CO-65) 
1 32785U 08021C   24189.47165919  .00004223  00000+0  37150-3 0  9991
2 32785  97.7565 154.6337 0008889 256.2272 103.7961 14.97029230878517
SEEDS II (CO-66)        
1 32791U 08021J   24189.49120107  .00008216  00000+0  59375-3 0  9999
2 32791  97.6898 160.5541 0003858 219.1005 140.9943 15.04310624879577
YUBILEINY (RS-30)       
1 32953U 08025A   24189.43334288  .00000037  00000+0  19284-3 0  9992
2 32953  82.5022  76.8941 0020576  61.2685 299.0459 12.43143151731505
KKS-1 (KISEKI)          
1 33499U 09002H   24189.44784188  .00001997  00000+0  27822-3 0  9996
2 33499  98.1375  91.3148 0009966  69.3095 290.9183 14.78888399831112
SWISSCUBE               
1 35932U 09051B   24189.59860576  .00001465  00000+0  32115-3 0  9997
2 35932  98.4690  73.3174 0005891 253.7783 106.2768 14.59172491785534
BEESAT-1                
1 35933U 09051C   24189.60724283  .00001273  00000+0  28222-3 0  9995
2 35933  98.4618  74.2088 0004209 269.6552  90.4165 14.58892710785606
ITUPSAT1                
1 35935U 09051E   24189.15608615  .00001126  00000+0  25641-3 0  9996
2 35935  98.4717  73.5233 0006518 278.9969  81.0491 14.57840737785173
XIWANG-1 (HOPE-1)       
1 36122U 09072B   24189.47957963 -.00000042  00000+0  30215-5 0  9998
2 36122 100.2949 147.2214 0008149  59.5499 300.6419 13.16403132699624
O/OREOS (USA 219)       
1 37224U 10062C   24189.58249894  .00002496  00000+0  28135-3 0  9992
2 37224  71.9709 241.2899 0016829 329.6445  30.3746 14.87460584 10862
JUGNU                   
1 37839U 11058B   24189.52371264  .00000545  00000+0  14633-3 0  9992
2 37839  19.9614 298.4643 0018661 160.6385 290.0894 14.13236114658602
SRMSAT                  
1 37841U 11058D   24189.61920725  .00000470  00000+0  11216-3 0  9998
2 37841  19.9735  33.2011 0011775 319.4253  77.7051 14.11136538657454
STRAND-1                
1 39090U 13009E   24189.48224140  .00000468  00000+0  17511-3 0  9998
2 39090  98.3811  17.2095 0008707 184.2994 175.8119 14.36112729595159
ZACUBE-1 (TSHEPISOSAT)  
1 39417U 13066B   24189.40951527  .00004858  00000+0  50316-3 0  9999
2 39417  97.7347 144.9275 0052315  93.6529 267.0673 14.89473270574591
GOMX-1                  
1 39430U 13066Q   24189.55043443  .00002155  00000+0  36275-3 0  9995
2 39430  97.7298  62.7022 0139486 187.5044 172.4074 14.64294628566022
CUBEBUG-2 (LO-74)       
1 39440U 13066AA  24189.41184649  .00002925  00000+0  34711-3 0  9993
2 39440  97.8136 132.6491 0068720 206.7335 153.0331 14.83579798571337
FUNCUBE-1 (AO-73)       
1 39444U 13066AE  24189.39632155  .00005976  00000+0  57484-3 0  9995
2 39444  97.7203 148.0900 0049715  74.6902 285.9804 14.92424817573126
UWE-3                   
1 39446U 13066AG  24189.38193562  .00003310  00000+0  36967-3 0  9993
2 39446  97.7819 138.6930 0061072 151.6795 208.7764 14.86297170571708
SPROUT                  
1 39770U 14029E   24189.57070575  .00220668  00000+0  30501-2 0  9996
2 39770  98.0064 344.4841 0004425 237.5207 122.5619 15.56368702550812
UNISAT-6                
1 40012U 14033C   24189.49080839  .00003414  00000+0  44738-3 0  9993
2 40012  97.7049 351.0911 0051459 238.1626 121.4572 14.80064658540842
DUCHIFAT-1              
1 40021U 14033M   24189.47101996  .00011908  00000+0  77915-3 0  9999
2 40021  98.0900 174.3525 0013789  41.8813 318.3466 15.07855019547182
QB50P1                  
1 40025U 14033R   24189.36407805  .00006221  00000+0  50322-3 0  9994
2 40025  98.0387 150.7817 0014888  96.3760 263.9159 15.00064863545908
KAITUO 1A               
1 40904U 15049F   24189.58402232  .00044685  00000+0  80246-3 0  9995
2 40904  97.4812 207.0680 0006081 213.6846 146.4019 15.49741422487607
XW-2C                   
1 40906U 15049H   24189.54649239  .00027540  00000+0  60637-3 0  9996
2 40906  97.4760 206.9037 0007239 208.4581 151.6272 15.43901134487611
XW-2D                   
1 40907U 15049J   24189.59093799  .00046350  00000+0  76300-3 0  9990
2 40907  97.4704 209.6942 0007106 190.6109 169.4995 15.52183574487862
LILACSAT-2              
1 40908U 15049K   24189.51400083  .00008776  00000+0  33549-3 0  9999
2 40908  97.5226 198.3742 0010102 278.6882  81.3211 15.26802113486590
XW-2B                   
1 40911U 15049N   24189.49886185  .00043518  00000+0  73903-3 0  9992
2 40911  97.4676 209.6622 0006826 193.2201 166.8873 15.51325720487710
LAPAN-A2                
1 40931U 15052B   24180.14795698  .00001574  00000+0  12542-3 0  9997
2 40931   5.9997 274.4192 0013395 238.9714 120.9097 14.77898591473081
FOX-1A (AO-85)          
1 40967U 15058D   24189.49852841  .00002803  00000+0  27002-3 0  9996
2 40967  64.7790 313.2199 0190889 297.7913  60.3957 14.82378900  8002
CAS-2T & KS-1Q          
1 41847U 16066G   24189.30183575  .00002452  00000+0  36248-3 0  9997
2 41847  98.4601 260.4518 0354812 116.7584 247.0371 14.41385729402391
ZHUHAI-1 02 (CAS-4B)    
1 42759U 17034B   24189.23746845  .00015038  00000+0  53142-3 0  9999
2 42759  43.0181 113.1789 0010294 125.9028 234.2781 15.28959092390479
ZHUHAI-1 01 (CAS-4A)    
1 42761U 17034D   24189.23732962  .00015314  00000+0  53907-3 0  9993
2 42761  43.0221 111.5159 0009470 140.5022 219.6522 15.29080301390470
RADFXSAT (FOX-1B)       
1 43017U 17073E   24189.21988196  .00005504  00000+0  34247-3 0  9997
2 43017  97.5758  64.0076 0208006 226.3994 131.9804 14.93769547358650
DIWATA-2B               
1 43678U 18084H   24189.41591189  .00001171  00000+0  11161-3 0  9993
2 43678  98.0738 347.9985 0008385 331.8882  28.1884 14.95401641309948
ES'HAIL 2               
1 43700U 18090A   24189.55507014  .00000141  00000+0  00000+0 0  9997
2 43700   0.0230  75.2978 0001981  75.7473   0.5752  1.00274259 20563
FOX-1CLIFF (AO-95)      
1 43770U 18099N   24189.10494316  .00007205  00000+0  49518-3 0  9993
2 43770  97.5447 246.5283 0012193 295.8476  64.1493 15.06180361305563
ITASAT                  
1 43786U 18099AE  24189.54564386  .00005403  00000+0  38846-3 0  9993
2 43786  97.5094 246.2382 0015167 283.3082  76.6453 15.04572827305636
JY1SAT (JO-97)          
1 43803U 18099AX  24189.41036685  .00007134  00000+0  46972-3 0  9997
2 43803  97.5189 247.6345 0008916 224.3426 135.7089 15.07803654305748
UWE-4                   
1 43880U 18111E   24189.27867352  .00008958  00000+0  55318-3 0  9993
2 43880  97.6105  94.8593 0014596 303.6802  56.3035 15.10034030302462
DUCHIFAT-3              
1 44854U 19089C   24189.40043718  .00012846  00000+0  63675-3 0  9993
2 44854  36.9570 286.2283 0005944 258.1171 101.8910 15.17139420251275
TIANYAN 01              
1 44881U 19093C   24189.54145513  .00001319  00000+0  16529-3 0  9998
2 44881  97.8282 265.9321 0013022 254.5454 105.4322 14.83821809246067
RS-44 & BREEZE-KM R/B   
1 44909U 19096E   24189.20441478  .00000030  00000+0  76795-4 0  9995
2 44909  82.5211  91.4777 0217791   4.7269 355.5819 12.79731107211533
BY70-2                  
1 45857U 20042B   24189.54253371  .00195083  00000+0  50105-2 0  9999
2 45857  97.9054 284.5349 0008955 193.6299 166.4704 15.38486990217670
